[{"OBJECT_NAME":"AMAZONIA 1","OBJECT_ID":"2021-015A","EPOCH":"2026-03-09T17:05:01.705920","MEAN_MOTION":14.40836291,"ECCENTRICITY":0.00039353,"INCLINATION":98.4264,"RA_OF_ASC_NODE":142.7385,"ARG_OF_PERICENTER":123.8493,"MEAN_ANOMALY":236.3071,"EPHEMERIS_TYPE":0,"CLASSIFICATION_TYPE":"U","NORAD_CAT_ID":47699,"ELEMENT_SET_NO":999,"REV_AT_EPOCH":26432,"BSTAR":0.00010973552,"MEAN_MOTION_DOT":3.08e-6,"MEAN_MOTION_DDOT":0},{"OBJECT_NAME":"DELTA 1 DEB","OBJECT_ID":"1978-026EY","EPOCH":"2026-03-09T14:53:25.749024","MEAN_MOTION":14.36835122,"ECCENTRICITY":0.0119379,"INCLINATION":99.0095,"RA_OF_ASC_NODE":301.0633,"ARG_OF_PERICENTER":229.1414,"MEAN_ANOMALY":185.843,"EPHEMERIS_TYPE":0,"CLASSIFICATION_TYPE":"U","NORAD_CAT_ID":13561,"ELEMENT_SET_NO":999,"REV_AT_EPOCH":28238,"BSTAR":0.0017479,"MEAN_MOTION_DOT":5.557e-5,"MEAN_MOTION_DDOT":0}]
